[
  {
    "OBJECT_NAME": "STARLINK-30570",
    "OBJECT_ID": "2023-160W",
    "EPOCH": "2025-05-17T14:32:13.697376",
    "MEAN_MOTION": 15.02537411,
    "ECCENTRICITY": 0.0001351,
    "INCLINATION": 43.0036,
    "RA_OF_ASC_NODE": 248.7087,
    "ARG_OF_PERICENTER": 267.8329,
    "MEAN_ANOMALY": 92.2359,
    "EPHEMERIS_TYPE": 0,
    "CLASSIFICATION_TYPE": "U",
    "NORAD_CAT_ID": 58095,
    "ELEMENT_SET_NO": 999,
    "REV_AT_EPOCH": 8838,
    "BSTAR": 7.0906e-05,
    "MEAN_MOTION_DOT": 7.54e-06,
    "MEAN_MOTION_DDOT": 0
  },
  {
    "OBJECT_NAME": "STARLINK-30581",
    "OBJECT_ID": "2023-160X",
    "EPOCH": "2025-05-17T07:59:53.692512",
    "MEAN_MOTION": 15.02538245,
    "ECCENTRICITY": 0.0001426,
    "INCLINATION": 43.0032,
    "RA_OF_ASC_NODE": 250.9501,
    "ARG_OF_PERICENTER": 269.12,
    "MEAN_ANOMALY": 90.9479,
    "EPHEMERIS_TYPE": 0,
    "CLASSIFICATION_TYPE": "U",
    "NORAD_CAT_ID": 58096,
    "ELEMENT_SET_NO": 999,
    "REV_AT_EPOCH": 8833,
    "BSTAR": 5.372e-05,
    "MEAN_MOTION_DOT": 5.22e-06,
    "MEAN_MOTION_DDOT": 0
  },
  {
    "OBJECT_NAME": "STARLINK-30594",
    "OBJECT_ID": "2023-161A",
    "EPOCH": "2025-05-17T15:04:22.319040",
    "MEAN_MOTION": 15.30191907,
    "ECCENTRICITY": 0.000135,
    "INCLINATION": 53.1598,
    "RA_OF_ASC_NODE": 100.6836,
    "ARG_OF_PERICENTER": 79.1801,
    "MEAN_ANOMALY": 280.9352,
    "EPHEMERIS_TYPE": 0,
    "CLASSIFICATION_TYPE": "U",
    "NORAD_CAT_ID": 58097,
    "ELEMENT_SET_NO": 999,
    "REV_AT_EPOCH": 8896,
    "BSTAR": 2.0643e-05,
    "MEAN_MOTION_DOT": 2.52e-06,
    "MEAN_MOTION_DDOT": 0
  },
  {
    "OBJECT_NAME": "STARLINK-30614",
    "OBJECT_ID": "2023-161B",
    "EPOCH": "2025-05-17T07:09:32.533344",
    "MEAN_MOTION": 15.30193222,
    "ECCENTRICITY": 0.0001332,
    "INCLINATION": 53.1596,
    "RA_OF_ASC_NODE": 102.1798,
    "ARG_OF_PERICENTER": 86.3895,
    "MEAN_ANOMALY": 273.7258,
    "EPHEMERIS_TYPE": 0,
    "CLASSIFICATION_TYPE": "U",
    "NORAD_CAT_ID": 58098,
    "ELEMENT_SET_NO": 999,
    "REV_AT_EPOCH": 8904,
    "BSTAR": 2.1977e-05,
    "MEAN_MOTION_DOT": 2.92e-06,
    "MEAN_MOTION_DDOT": 0
  },
  {
    "OBJECT_NAME": "STARLINK-30607",
    "OBJECT_ID": "2023-161C",
    "EPOCH": "2025-05-17T21:20:40.469856",
    "MEAN_MOTION": 15.30195652,
    "ECCENTRICITY": 0.0001214,
    "INCLINATION": 53.1598,
    "RA_OF_ASC_NODE": 89.4728,
    "ARG_OF_PERICENTER": 89.3494,
    "MEAN_ANOMALY": 270.7646,
    "EPHEMERIS_TYPE": 0,
    "CLASSIFICATION_TYPE": "U",
    "NORAD_CAT_ID": 58099,
    "ELEMENT_SET_NO": 999,
    "REV_AT_EPOCH": 8887,
    "BSTAR": -1.7014e-05,
    "MEAN_MOTION_DOT": -8.63e-06,
    "MEAN_MOTION_DDOT": 0
  },
  {
    "OBJECT_NAME": "STARLINK-30600",
    "OBJECT_ID": "2023-161D",
    "EPOCH": "2025-05-17T04:15:07.104384",
    "MEAN_MOTION": 15.30192438,
    "ECCENTRICITY": 0.0001346,
    "INCLINATION": 53.1606,
    "RA_OF_ASC_NODE": 102.8339,
    "ARG_OF_PERICENTER": 89.2718,
    "MEAN_ANOMALY": 270.8437,
    "EPHEMERIS_TYPE": 0,
    "CLASSIFICATION_TYPE": "U",
    "NORAD_CAT_ID": 58100,
    "ELEMENT_SET_NO": 999,
    "REV_AT_EPOCH": 8902,
    "BSTAR": -7.6305e-06,
    "MEAN_MOTION_DOT": -5.85e-06,
    "MEAN_MOTION_DDOT": 0
  },
  {
    "OBJECT_NAME": "STARLINK-30605",
    "OBJECT_ID": "2023-161E",
    "EPOCH": "2025-05-17T14:53:43.739232",
    "MEAN_MOTION": 15.30186403,
    "ECCENTRICITY": 0.0001713,
    "INCLINATION": 53.1613,
    "RA_OF_ASC_NODE": 100.6348,
    "ARG_OF_PERICENTER": 95.9518,
    "MEAN_ANOMALY": 264.1678,
    "EPHEMERIS_TYPE": 0,
    "CLASSIFICATION_TYPE": "U",
    "NORAD_CAT_ID": 58101,
    "ELEMENT_SET_NO": 999,
    "REV_AT_EPOCH": 8896,
    "BSTAR": 6.6124e-05,
    "MEAN_MOTION_DOT": 1.599e-05,
    "MEAN_MOTION_DDOT": 0
  },
  {
    "OBJECT_NAME": "STARLINK-30592",
    "OBJECT_ID": "2023-161F",
    "EPOCH": "2025-05-17T06:58:54.485760",
    "MEAN_MOTION": 15.30191709,
    "ECCENTRICITY": 0.0001361,
    "INCLINATION": 53.1598,
    "RA_OF_ASC_NODE": 102.1329,
    "ARG_OF_PERICENTER": 93.652,
    "MEAN_ANOMALY": 266.4636,
    "EPHEMERIS_TYPE": 0,
    "CLASSIFICATION_TYPE": "U",
    "NORAD_CAT_ID": 58102,
    "ELEMENT_SET_NO": 999,
    "REV_AT_EPOCH": 8904,
    "BSTAR": 3.3066e-05,
    "MEAN_MOTION_DOT": 6.2e-06,
    "MEAN_MOTION_DDOT": 0
  },
  {
    "OBJECT_NAME": "STARLINK-30589",
    "OBJECT_ID": "2023-161G",
    "EPOCH": "2025-05-17T14:12:49.084128",
    "MEAN_MOTION": 15.30198757,
    "ECCENTRICITY": 0.0001084,
    "INCLINATION": 53.1589,
    "RA_OF_ASC_NODE": 100.9715,
    "ARG_OF_PERICENTER": 85.8943,
    "MEAN_ANOMALY": 274.2181,
    "EPHEMERIS_TYPE": 0,
    "CLASSIFICATION_TYPE": "U",
    "NORAD_CAT_ID": 58103,
    "ELEMENT_SET_NO": 999,
    "REV_AT_EPOCH": 8895,
    "BSTAR": 7.8982e-06,
    "MEAN_MOTION_DOT": -1.25e-06,
    "MEAN_MOTION_DDOT": 0
  },
  {
    "OBJECT_NAME": "STARLINK-30617",
    "OBJECT_ID": "2023-161H",
    "EPOCH": "2025-05-17T14:17:21.080832",
    "MEAN_MOTION": 15.30217634,
    "ECCENTRICITY": 0.0001387,
    "INCLINATION": 53.1601,
    "RA_OF_ASC_NODE": 100.9903,
    "ARG_OF_PERICENTER": 93.4666,
    "MEAN_ANOMALY": 266.6493,
    "EPHEMERIS_TYPE": 0,
    "CLASSIFICATION_TYPE": "U",
    "NORAD_CAT_ID": 58104,
    "ELEMENT_SET_NO": 999,
    "REV_AT_EPOCH": 8895,
    "BSTAR": 0.00012141,
    "MEAN_MOTION_DOT": 3.24e-05,
    "MEAN_MOTION_DDOT": 0
  },
  {
    "OBJECT_NAME": "STARLINK-30616",
    "OBJECT_ID": "2023-161J",
    "EPOCH": "2025-05-17T13:58:06.814848",
    "MEAN_MOTION": 15.39611559,
    "ECCENTRICITY": 0.0001124,
    "INCLINATION": 53.1598,
    "RA_OF_ASC_NODE": 89.5796,
    "ARG_OF_PERICENTER": 94.8475,
    "MEAN_ANOMALY": 265.2658,
    "EPHEMERIS_TYPE": 0,
    "CLASSIFICATION_TYPE": "U",
    "NORAD_CAT_ID": 58105,
    "ELEMENT_SET_NO": 999,
    "REV_AT_EPOCH": 8911,
    "BSTAR": 9.3274e-05,
    "MEAN_MOTION_DOT": 3.332e-05,
    "MEAN_MOTION_DDOT": 0
  },
  {
    "OBJECT_NAME": "STARLINK-30612",
    "OBJECT_ID": "2023-161K",
    "EPOCH": "2025-05-17T14:00:01.999872",
    "MEAN_MOTION": 15.3965486,
    "ECCENTRICITY": 0.0001239,
    "INCLINATION": 53.1591,
    "RA_OF_ASC_NODE": 89.6387,
    "ARG_OF_PERICENTER": 88.2982,
    "MEAN_ANOMALY": 253.4372,
    "EPHEMERIS_TYPE": 0,
    "CLASSIFICATION_TYPE": "U",
    "NORAD_CAT_ID": 58106,
    "ELEMENT_SET_NO": 999,
    "REV_AT_EPOCH": 595,
    "BSTAR": -0.001721,
    "MEAN_MOTION_DOT": -0.00068699,
    "MEAN_MOTION_DDOT": 0
  },
  {
    "OBJECT_NAME": "STARLINK-30421",
    "OBJECT_ID": "2023-161L",
    "EPOCH": "2025-05-17T13:51:25.779744",
    "MEAN_MOTION": 15.39613337,
    "ECCENTRICITY": 0.0001159,
    "INCLINATION": 53.1598,
    "RA_OF_ASC_NODE": 89.5294,
    "ARG_OF_PERICENTER": 96.464,
    "MEAN_ANOMALY": 263.6497,
    "EPHEMERIS_TYPE": 0,
    "CLASSIFICATION_TYPE": "U",
    "NORAD_CAT_ID": 58107,
    "ELEMENT_SET_NO": 999,
    "REV_AT_EPOCH": 8924,
    "BSTAR": 1.951e-05,
    "MEAN_MOTION_DOT": 3.81e-06,
    "MEAN_MOTION_DDOT": 0
  },
  {
    "OBJECT_NAME": "STARLINK-30611",
    "OBJECT_ID": "2023-161M",
    "EPOCH": "2025-05-17T22:00:01.999584",
    "MEAN_MOTION": 15.39598397,
    "ECCENTRICITY": 0.0001244,
    "INCLINATION": 53.1595,
    "RA_OF_ASC_NODE": 88.0153,
    "ARG_OF_PERICENTER": 103.923,
    "MEAN_ANOMALY": 284.5902,
    "EPHEMERIS_TYPE": 0,
    "CLASSIFICATION_TYPE": "U",
    "NORAD_CAT_ID": 58108,
    "ELEMENT_SET_NO": 999,
    "REV_AT_EPOCH": 8916,
    "BSTAR": 0.00062038,
    "MEAN_MOTION_DOT": 0.00024477,
    "MEAN_MOTION_DDOT": 0
  }
]