STARLINK-30570          
1 58095U 23160W   25137.60571409  .00000754  00000+0  70906-4 0  9990
2 58095  43.0036 248.7087 0001351 267.8329  92.2359 15.02537411 88384
STARLINK-30581          
1 58096U 23160X   25137.33326033  .00000522  00000+0  53720-4 0  9990
2 58096  43.0032 250.9501 0001426 269.1200  90.9479 15.02538245 88332
STARLINK-30594          
1 58097U 23161A   25137.62803610  .00000252  00000+0  20643-4 0  9993
2 58097  53.1598 100.6836 0001350  79.1801 280.9352 15.30191907 88967
STARLINK-30614          
1 58098U 23161B   25137.29829321  .00000292  00000+0  21977-4 0  9999
2 58098  53.1596 102.1798 0001332  86.3895 273.7258 15.30193222 89040
STARLINK-30607          
1 58099U 23161C   25137.88935729 -.00000863  00000+0 -17014-4 0  9998
2 58099  53.1598  89.4728 0001214  89.3494 270.7646 15.30195652 88877
STARLINK-30600          
1 58100U 23161D   25137.17716556 -.00000585  00000+0 -76305-5 0  9998
2 58100  53.1606 102.8339 0001346  89.2718 270.8437 15.30192438 89028
STARLINK-30605          
1 58101U 23161E   25137.62064513  .00001599  00000+0  66124-4 0  9999
2 58101  53.1613 100.6348 0001713  95.9518 264.1678 15.30186403 88963
STARLINK-30592          
1 58102U 23161F   25137.29090840  .00000620  00000+0  33066-4 0  9998
2 58102  53.1598 102.1329 0001361  93.6520 266.4636 15.30191709 89043
STARLINK-30589          
1 58103U 23161G   25137.59223477 -.00000125  00000+0  78982-5 0  9994
2 58103  53.1589 100.9715 0001084  85.8943 274.2181 15.30198757 88954
STARLINK-30617          
1 58104U 23161H   25137.59538288  .00003240  00000+0  12141-3 0  9997
2 58104  53.1601 100.9903 0001387  93.4666 266.6493 15.30217634 88959
STARLINK-30616          
1 58105U 23161J   25137.58202332  .00003332  00000+0  93274-4 0  9994
2 58105  53.1598  89.5796 0001124  94.8475 265.2658 15.39611559 89119
STARLINK-30612          
1 58106U 23161K   25137.58335648 -.00068699  00000+0 -17210-2 0  9995
2 58106  53.1591  89.6387 0001239  88.2982 253.4372 15.39654860  5951
STARLINK-30421          
1 58107U 23161L   25137.57738171  .00000381  00000+0  19510-4 0  9992
2 58107  53.1598  89.5294 0001159  96.4640 263.6497 15.39613337 89247
STARLINK-30611          
1 58108U 23161M   25137.91668981  .00024477  00000+0  62038-3 0  9996
2 58108  53.1595  88.0153 0001244 103.9230 284.5902 15.39598397 89169
